IDEFIX & ARIANE 42P R/B 
1 27422U 02021B   25357.07175022  .00000290  00000+0  12681-3 0  9999
2 27422  98.5801 291.6291 0012814  55.8083 304.4313 14.30957378233064
AQUA                    
1 27424U 02022A   25357.09938124  .00000905  00000+0  19103-3 0  9993
2 27424  98.4053 318.1475 0001484 109.2410 342.3415 14.61823033257549
CZ-4B R/B               
1 27432U 02024C   25357.11292271  .00000066  00000+0  57331-4 0  9997
2 27432  98.8984  45.8479 0049318 239.8816 174.4513 14.14530059218418
MIDORI II (ADEOS-II)    
1 27597U 02056A   25356.86664229  .00000245  00000+0  11434-3 0  9993
2 27597  98.7653 309.8768 0000712 148.9986 211.1237 14.29212003199321
H-2A R/B                
1 27601U 02056E   25357.13949940  .00000373  00000+0  14531-3 0  9999
2 27601  98.3082 315.4828 0070998  30.5577 340.0752 14.33684784203148
CZ-4B R/B               
1 28059U 03049C   25356.84277790  .00000359  00000+0  93981-4 0  9995
2 28059  98.6795 343.7886 0049348 105.8352 254.8292 14.54918445175427
CZ-2C R/B               
1 28222U 04012C   25356.77250257  .00040041  00000+0  56709-3 0  9997
2 28222  97.7400  50.2269 0016520 231.3036 128.6741 15.56229086192286
SL-16 R/B               
1 28353U 04021B   25357.15783414  .00000056  00000+0  53992-4 0  9995
2 28353  71.0004  33.1026 0004725 182.6515 177.4583 14.14579040112011
CZ-4B R/B               
1 28415U 04035C   25356.65005410  .00008586  00000+0  31700-3 0  9994
2 28415  97.3590  26.8619 0031627 240.5290 119.2793 15.27522557168141
CZ-2C R/B               
1 28480U 04046B   25356.70554629  .00000227  00000+0  99566-4 0  9994
2 28480  98.1997 271.4643 0140029  22.9978 337.7392 14.26946121 97520
ARIANE 5 R/B            
1 28499U 04049H   25356.42265834  .00001174  00000+0  13646-3 0  9999
2 28499  98.2527 157.0515 0083408 241.1242 118.1584 14.85035388134326
CZ-2D R/B               
1 28738U 05024B   25356.77058538  .00031293  00000+0  48889-3 0  9990
2 28738  97.3624   4.4840 0003835 326.9384  33.1629 15.53739982127810
