CCSDS_OMM_VERS = 2.0
CREATION_DATE  = 
ORIGINATOR     = 

OBJECT_NAME    = IDEFIX & ARIANE 42P R/B
OBJECT_ID      = 2002-021B
CENTER_NAME    = EARTH
REF_FRAME      = TEME
TIME_SYSTEM    = UTC
MEAN_ELEMENT_THEORY = SGP/SGP4

EPOCH          = 2025-12-23T01:43:19.219008
MEAN_MOTION    = 14.30957378
ECCENTRICITY   = .0012814
INCLINATION    = 98.5801
RA_OF_ASC_NODE = 291.6291
ARG_OF_PERICENTER = 55.8083
MEAN_ANOMALY   = 304.4313

EPHEMERIS_TYPE = 0
CLASSIFICATION_TYPE = U
NORAD_CAT_ID   = 27422
ELEMENT_SET_NO = 999
REV_AT_EPOCH   = 23306
BSTAR          = .12681E-3
MEAN_MOTION_DOT = .29E-5
MEAN_MOTION_DDOT = 0

CCSDS_OMM_VERS = 2.0
CREATION_DATE  = 
ORIGINATOR     = 

OBJECT_NAME    = AQUA
OBJECT_ID      = 2002-022A
CENTER_NAME    = EARTH
REF_FRAME      = TEME
TIME_SYSTEM    = UTC
MEAN_ELEMENT_THEORY = SGP/SGP4

EPOCH          = 2025-12-23T02:23:06.539136
MEAN_MOTION    = 14.61823033
ECCENTRICITY   = .0001484
INCLINATION    = 98.4053
RA_OF_ASC_NODE = 318.1475
ARG_OF_PERICENTER = 109.2410
MEAN_ANOMALY   = 342.3415

EPHEMERIS_TYPE = 0
CLASSIFICATION_TYPE = U
NORAD_CAT_ID   = 27424
ELEMENT_SET_NO = 999
REV_AT_EPOCH   = 25754
BSTAR          = .19103E-3
MEAN_MOTION_DOT = .905E-5
MEAN_MOTION_DDOT = 0

CCSDS_OMM_VERS = 2.0
CREATION_DATE  = 
ORIGINATOR     = 

OBJECT_NAME    = CZ-4B R/B
OBJECT_ID      = 2002-024C
CENTER_NAME    = EARTH
REF_FRAME      = TEME
TIME_SYSTEM    = UTC
MEAN_ELEMENT_THEORY = SGP/SGP4

EPOCH          = 2025-12-23T02:42:36.522144
MEAN_MOTION    = 14.14530059
ECCENTRICITY   = .0049318
INCLINATION    = 98.8984
RA_OF_ASC_NODE = 45.8479
ARG_OF_PERICENTER = 239.8816
MEAN_ANOMALY   = 174.4513

EPHEMERIS_TYPE = 0
CLASSIFICATION_TYPE = U
NORAD_CAT_ID   = 27432
ELEMENT_SET_NO = 999
REV_AT_EPOCH   = 21841
BSTAR          = .57331E-4
MEAN_MOTION_DOT = .66E-6
MEAN_MOTION_DDOT = 0

CCSDS_OMM_VERS = 2.0
CREATION_DATE  = 
ORIGINATOR     = 

OBJECT_NAME    = MIDORI II (ADEOS-II)
OBJECT_ID      = 2002-056A
CENTER_NAME    = EARTH
REF_FRAME      = TEME
TIME_SYSTEM    = UTC
MEAN_ELEMENT_THEORY = SGP/SGP4

EPOCH          = 2025-12-22T20:47:57.893856
MEAN_MOTION    = 14.29212003
ECCENTRICITY   = .0000712
INCLINATION    = 98.7653
RA_OF_ASC_NODE = 309.8768
ARG_OF_PERICENTER = 148.9986
MEAN_ANOMALY   = 211.1237

EPHEMERIS_TYPE = 0
CLASSIFICATION_TYPE = U
NORAD_CAT_ID   = 27597
ELEMENT_SET_NO = 999
REV_AT_EPOCH   = 19932
BSTAR          = .11434E-3
MEAN_MOTION_DOT = .245E-5
MEAN_MOTION_DDOT = 0

CCSDS_OMM_VERS = 2.0
CREATION_DATE  = 
ORIGINATOR     = 

OBJECT_NAME    = H-2A R/B
OBJECT_ID      = 2002-056E
CENTER_NAME    = EARTH
REF_FRAME      = TEME
TIME_SYSTEM    = UTC
MEAN_ELEMENT_THEORY = SGP/SGP4

EPOCH          = 2025-12-23T03:20:52.748160
MEAN_MOTION    = 14.33684784
ECCENTRICITY   = .0070998
INCLINATION    = 98.3082
RA_OF_ASC_NODE = 315.4828
ARG_OF_PERICENTER = 30.5577
MEAN_ANOMALY   = 340.0752

EPHEMERIS_TYPE = 0
CLASSIFICATION_TYPE = U
NORAD_CAT_ID   = 27601
ELEMENT_SET_NO = 999
REV_AT_EPOCH   = 20314
BSTAR          = .14531E-3
MEAN_MOTION_DOT = .373E-5
MEAN_MOTION_DDOT = 0

CCSDS_OMM_VERS = 2.0
CREATION_DATE  = 
ORIGINATOR     = 

OBJECT_NAME    = CZ-4B R/B
OBJECT_ID      = 2003-049C
CENTER_NAME    = EARTH
REF_FRAME      = TEME
TIME_SYSTEM    = UTC
MEAN_ELEMENT_THEORY = SGP/SGP4

EPOCH          = 2025-12-22T20:13:36.010560
MEAN_MOTION    = 14.54918445
ECCENTRICITY   = .00493484
INCLINATION    = 98.6795
RA_OF_ASC_NODE = 343.7886
ARG_OF_PERICENTER = 105.8352
MEAN_ANOMALY   = 254.8292

EPHEMERIS_TYPE = 0
CLASSIFICATION_TYPE = U
NORAD_CAT_ID   = 28059
ELEMENT_SET_NO = 999
REV_AT_EPOCH   = 17542
BSTAR          = .93980651E-4
MEAN_MOTION_DOT = .359E-5
MEAN_MOTION_DDOT = 0

CCSDS_OMM_VERS = 2.0
CREATION_DATE  = 
ORIGINATOR     = 

OBJECT_NAME    = CZ-2C R/B
OBJECT_ID      = 2004-012C
CENTER_NAME    = EARTH
REF_FRAME      = TEME
TIME_SYSTEM    = UTC
MEAN_ELEMENT_THEORY = SGP/SGP4

EPOCH          = 2025-12-22T18:32:24.222048
MEAN_MOTION    = 15.56229086
ECCENTRICITY   = .001652
INCLINATION    = 97.7400
RA_OF_ASC_NODE = 50.2269
ARG_OF_PERICENTER = 231.3036
MEAN_ANOMALY   = 128.6741

EPHEMERIS_TYPE = 0
CLASSIFICATION_TYPE = U
NORAD_CAT_ID   = 28222
ELEMENT_SET_NO = 999
REV_AT_EPOCH   = 19228
BSTAR          = .56709424E-3
MEAN_MOTION_DOT = .40041E-3
MEAN_MOTION_DDOT = 0

CCSDS_OMM_VERS = 2.0
CREATION_DATE  = 
ORIGINATOR     = 

OBJECT_NAME    = SL-16 R/B
OBJECT_ID      = 2004-021B
CENTER_NAME    = EARTH
REF_FRAME      = TEME
TIME_SYSTEM    = UTC
MEAN_ELEMENT_THEORY = SGP/SGP4

EPOCH          = 2025-12-23T03:47:16.869696
MEAN_MOTION    = 14.14579040
ECCENTRICITY   = .0004725
INCLINATION    = 71.0004
RA_OF_ASC_NODE = 33.1026
ARG_OF_PERICENTER = 182.6515
MEAN_ANOMALY   = 177.4583

EPHEMERIS_TYPE = 0
CLASSIFICATION_TYPE = U
NORAD_CAT_ID   = 28353
ELEMENT_SET_NO = 999
REV_AT_EPOCH   = 11201
BSTAR          = .53992E-4
MEAN_MOTION_DOT = .56E-6
MEAN_MOTION_DDOT = 0

CCSDS_OMM_VERS = 2.0
CREATION_DATE  = 
ORIGINATOR     = 

OBJECT_NAME    = CZ-4B R/B
OBJECT_ID      = 2004-035C
CENTER_NAME    = EARTH
REF_FRAME      = TEME
TIME_SYSTEM    = UTC
MEAN_ELEMENT_THEORY = SGP/SGP4

EPOCH          = 2025-12-22T15:36:04.674240
MEAN_MOTION    = 15.27522557
ECCENTRICITY   = .00316273
INCLINATION    = 97.3590
RA_OF_ASC_NODE = 26.8619
ARG_OF_PERICENTER = 240.5290
MEAN_ANOMALY   = 119.2793

EPHEMERIS_TYPE = 0
CLASSIFICATION_TYPE = U
NORAD_CAT_ID   = 28415
ELEMENT_SET_NO = 999
REV_AT_EPOCH   = 16814
BSTAR          = .31699584E-3
MEAN_MOTION_DOT = .8586E-4
MEAN_MOTION_DDOT = 0

CCSDS_OMM_VERS = 2.0
CREATION_DATE  = 
ORIGINATOR     = 

OBJECT_NAME    = CZ-2C R/B
OBJECT_ID      = 2004-046B
CENTER_NAME    = EARTH
REF_FRAME      = TEME
TIME_SYSTEM    = UTC
MEAN_ELEMENT_THEORY = SGP/SGP4

EPOCH          = 2025-12-22T16:55:59.199456
MEAN_MOTION    = 14.26946121
ECCENTRICITY   = .01400296
INCLINATION    = 98.1997
RA_OF_ASC_NODE = 271.4643
ARG_OF_PERICENTER = 22.9978
MEAN_ANOMALY   = 337.7392

EPHEMERIS_TYPE = 0
CLASSIFICATION_TYPE = U
NORAD_CAT_ID   = 28480
ELEMENT_SET_NO = 999
REV_AT_EPOCH   = 9752
BSTAR          = .99565972E-4
MEAN_MOTION_DOT = .227E-5
MEAN_MOTION_DDOT = 0

CCSDS_OMM_VERS = 2.0
CREATION_DATE  = 
ORIGINATOR     = 

OBJECT_NAME    = ARIANE 5 R/B
OBJECT_ID      = 2004-049H
CENTER_NAME    = EARTH
REF_FRAME      = TEME
TIME_SYSTEM    = UTC
MEAN_ELEMENT_THEORY = SGP/SGP4

EPOCH          = 2025-12-22T10:08:37.680576
MEAN_MOTION    = 14.85035388
ECCENTRICITY   = .00834086
INCLINATION    = 98.2527
RA_OF_ASC_NODE = 157.0515
ARG_OF_PERICENTER = 241.1242
MEAN_ANOMALY   = 118.1584

EPHEMERIS_TYPE = 0
CLASSIFICATION_TYPE = U
NORAD_CAT_ID   = 28499
ELEMENT_SET_NO = 999
REV_AT_EPOCH   = 13432
BSTAR          = .13645568E-3
MEAN_MOTION_DOT = .1174E-4
MEAN_MOTION_DDOT = 0

CCSDS_OMM_VERS = 2.0
CREATION_DATE  = 
ORIGINATOR     = 

OBJECT_NAME    = CZ-2D R/B
OBJECT_ID      = 2005-024B
CENTER_NAME    = EARTH
REF_FRAME      = TEME
TIME_SYSTEM    = UTC
MEAN_ELEMENT_THEORY = SGP/SGP4

EPOCH          = 2025-12-22T18:29:38.576832
MEAN_MOTION    = 15.53739982
ECCENTRICITY   = .0003835
INCLINATION    = 97.3624
RA_OF_ASC_NODE = 4.4840
ARG_OF_PERICENTER = 326.9384
MEAN_ANOMALY   = 33.1629

EPHEMERIS_TYPE = 0
CLASSIFICATION_TYPE = U
NORAD_CAT_ID   = 28738
ELEMENT_SET_NO = 999
REV_AT_EPOCH   = 12781
BSTAR          = .48888958E-3
MEAN_MOTION_DOT = .31293E-3
MEAN_MOTION_DDOT = 0

